{
  "type": "FeatureCollection",
  "features": [
    {
      "type": "Feature",
      "properties": {
        "norad_id": 32376,
        "name": "COSMO-SKYMED 2",
        "group": "resource",
        "lat": 53.24652522679996,
        "lon": -6.053983351340557,
        "alt_km": 616.7346042341533,
        "timestamp": "2025-12-07T20:38:13.734042+00:00",
        "meta_object_name": "COSMO-SKYMED 2",
        "meta_object_id": "2007-059A",
        "meta_epoch": "2025-12-07T05:29:19.328352",
        "meta_mean_motion": 14.82155671,
        "meta_eccentricity": 0.00015248,
        "meta_inclination": 97.8813,
        "meta_ra_of_asc_node": 162.6354,
        "meta_arg_of_pericenter": 86.8527,
        "meta_mean_anomaly": 273.286,
        "meta_ephemeris_type": 0,
        "meta_classification_type": "U",
        "meta_norad_cat_id": 32376,
        "meta_element_set_no": 999,
        "meta_rev_at_epoch": 97356,
        "meta_bstar": 0.00014537483,
        "meta_mean_motion_dot": 1.105e-05,
        "meta_mean_motion_ddot": 0,
        "tle_line1": "1 32376U 07059A   25341.22869593  .00001105  00000+0  14537-3 0  9990",
        "tle_line2": "2 32376  97.8813 162.6354 0001524  86.8527 273.2860 14.82155671973562"
      },
      "geometry": {
        "type": "Point",
        "coordinates": [
          -6.053983351340557,
          53.24652522679996
        ]
      }
    },
    {
      "type": "Feature",
      "properties": {
        "norad_id": 32382,
        "name": "RADARSAT-2",
        "group": "resource",
        "lat": -81.41445188183646,
        "lon": 76.92757941071154,
        "alt_km": 799.8882814573972,
        "timestamp": "2025-12-07T20:38:13.734052+00:00",
        "meta_object_name": "RADARSAT-2",
        "meta_object_id": "2007-061A",
        "meta_epoch": "2025-12-07T05:56:39.074208",
        "meta_mean_motion": 14.29985228,
        "meta_eccentricity": 0.00010798,
        "meta_inclination": 98.5799,
        "meta_ra_of_asc_node": 345.9177,
        "meta_arg_of_pericenter": 91.7023,
        "meta_mean_anomaly": 268.4283,
        "meta_ephemeris_type": 0,
        "meta_classification_type": "U",
        "meta_norad_cat_id": 32382,
        "meta_element_set_no": 999,
        "meta_rev_at_epoch": 93852,
        "meta_bstar": 7.7284713e-05,
        "meta_mean_motion_dot": 1.56e-06,
        "meta_mean_motion_ddot": 0,
        "tle_line1": "1 32382U 07061A   25341.24767447  .00000156  00000+0  77285-4 0  9992",
        "tle_line2": "2 32382  98.5799 345.9177 0001079  91.7023 268.4283 14.29985228938522"
      },
      "geometry": {
        "type": "Point",
        "coordinates": [
          76.92757941071154,
          -81.41445188183646
        ]
      }
    },
    {
      "type": "Feature",
      "properties": {
        "norad_id": 32783,
        "name": "CARTOSAT-2A",
        "group": "resource",
        "lat": -37.46649907019946,
        "lon": 37.86116314157276,
        "alt_km": 634.5521460395648,
        "timestamp": "2025-12-07T20:38:13.734063+00:00",
        "meta_object_name": "CARTOSAT-2A",
        "meta_object_id": "2008-021A",
        "meta_epoch": "2025-12-07T06:11:37.127904",
        "meta_mean_motion": 14.78921988,
        "meta_eccentricity": 0.00122241,
        "meta_inclination": 97.7938,
        "meta_ra_of_asc_node": 31.2527,
        "meta_arg_of_pericenter": 21.8989,
        "meta_mean_anomaly": 338.2743,
        "meta_ephemeris_type": 0,
        "meta_classification_type": "U",
        "meta_norad_cat_id": 32783,
        "meta_element_set_no": 999,
        "meta_rev_at_epoch": 95043,
        "meta_bstar": 0.00023592457,
        "meta_mean_motion_dot": 1.691e-05,
        "meta_mean_motion_ddot": 0,
        "tle_line1": "1 32783U 08021A   25341.25806861  .00001691  00000+0  23592-3 0  9995",
        "tle_line2": "2 32783  97.7938  31.2527 0012224  21.8989 338.2743 14.78921988950434"
      },
      "geometry": {
        "type": "Point",
        "coordinates": [
          37.86116314157276,
          -37.46649907019946
        ]
      }
    },
    {
      "type": "Feature",
      "properties": {
        "norad_id": 33320,
        "name": "HUANJING 1A (HJ-1A)",
        "group": "resource",
        "lat": 68.71440389359155,
        "lon": 170.5537379969944,
        "alt_km": 604.8819963079386,
        "timestamp": "2025-12-07T20:38:13.734085+00:00",
        "meta_object_name": "HUANJING 1A (HJ-1A)",
        "meta_object_id": "2008-041A",
        "meta_epoch": "2025-12-07T07:11:37.778784",
        "meta_mean_motion": 14.83368551,
        "meta_eccentricity": 0.00204787,
        "meta_inclination": 97.6537,
        "meta_ra_of_asc_node": 329.8253,
        "meta_arg_of_pericenter": 51.5636,
        "meta_mean_anomaly": 308.7412,
        "meta_ephemeris_type": 0,
        "meta_classification_type": "U",
        "meta_norad_cat_id": 33320,
        "meta_element_set_no": 999,
        "meta_rev_at_epoch": 92995,
        "meta_bstar": 0.00034793522,
        "meta_mean_motion_dot": 2.812e-05,
        "meta_mean_motion_ddot": 0,
        "tle_line1": "1 33320U 08041A   25341.29974281  .00002812  00000+0  34794-3 0  9993",
        "tle_line2": "2 33320  97.6537 329.8253 0020478  51.5636 308.7412 14.83368551929952"
      },
      "geometry": {
        "type": "Point",
        "coordinates": [
          170.5537379969944,
          68.71440389359155
        ]
      }
    },
    {
      "type": "Feature",
      "properties": {
        "norad_id": 33321,
        "name": "HUANJING 1B (HJ-1B)",
        "group": "resource",
        "lat": -19.53893581965845,
        "lon": -23.19808716114669,
        "alt_km": 635.0874211816945,
        "timestamp": "2025-12-07T20:38:13.734101+00:00",
        "meta_object_name": "HUANJING 1B (HJ-1B)",
        "meta_object_id": "2008-041B",
        "meta_epoch": "2025-12-07T06:09:00.096768",
        "meta_mean_motion": 14.82799882,
        "meta_eccentricity": 0.00382502,
        "meta_inclination": 97.6395,
        "meta_ra_of_asc_node": 333.4949,
        "meta_arg_of_pericenter": 93.1614,
        "meta_mean_anomaly": 267.3977,
        "meta_ephemeris_type": 0,
        "meta_classification_type": "U",
        "meta_norad_cat_id": 33321,
        "meta_element_set_no": 999,
        "meta_rev_at_epoch": 92996,
        "meta_bstar": 0.00028937528,
        "meta_mean_motion_dot": 2.319e-05,
        "meta_mean_motion_ddot": 0,
        "tle_line1": "1 33321U 08041B   25341.25625112  .00002319  00000+0  28938-3 0  9991",
        "tle_line2": "2 33321  97.6395 333.4949 0038250  93.1614 267.3977 14.82799882929964"
      },
      "geometry": {
        "type": "Point",
        "coordinates": [
          -23.19808716114669,
          -19.53893581965845
        ]
      }
    },
    {
      "type": "Feature",
      "properties": {
        "norad_id": 33331,
        "name": "GEOEYE 1",
        "group": "resource",
        "lat": -75.03680992116166,
        "lon": 85.51759848345912,
        "alt_km": 683.1063316277141,
        "timestamp": "2025-12-07T20:38:13.734111+00:00",
        "meta_object_name": "GEOEYE 1",
        "meta_object_id": "2008-042A",
        "meta_epoch": "2025-12-07T06:14:06.094464",
        "meta_mean_motion": 14.64801321,
        "meta_eccentricity": 0.0002835,
        "meta_inclination": 98.1258,
        "meta_ra_of_asc_node": 52.6088,
        "meta_arg_of_pericenter": 300.9862,
        "meta_mean_anomaly": 59.1062,
        "meta_ephemeris_type": 0,
        "meta_classification_type": "U",
        "meta_norad_cat_id": 33331,
        "meta_element_set_no": 999,
        "meta_rev_at_epoch": 92205,
        "meta_bstar": 0.00023467076,
        "meta_mean_motion_dot": 1.204e-05,
        "meta_mean_motion_ddot": 0,
        "tle_line1": "1 33331U 08042A   25341.25979276  .00001204  00000+0  23467-3 0  9990",
        "tle_line2": "2 33331  98.1258  52.6088 0002835 300.9862  59.1062 14.64801321922054"
      },
      "geometry": {
        "type": "Point",
        "coordinates": [
          85.51759848345912,
          -75.03680992116166
        ]
      }
    },
    {
      "type": "Feature",
      "properties": {
        "norad_id": 33396,
        "name": "THEOS",
        "group": "resource",
        "lat": -23.494005747014533,
        "lon": -143.67295505590533,
        "alt_km": 830.6542517071866,
        "timestamp": "2025-12-07T20:38:13.734122+00:00",
        "meta_object_name": "THEOS",
        "meta_object_id": "2008-049A",
        "meta_epoch": "2025-12-07T06:09:11.856672",
        "meta_mean_motion": 14.20094771,
        "meta_eccentricity": 0.00011107,
        "meta_inclination": 98.5876,
        "meta_ra_of_asc_node": 39.5076,
        "meta_arg_of_pericenter": 100.4502,
        "meta_mean_anomaly": 259.68,
        "meta_ephemeris_type": 0,
        "meta_classification_type": "U",
        "meta_norad_cat_id": 33396,
        "meta_element_set_no": 999,
        "meta_rev_at_epoch": 89072,
        "meta_bstar": 9.826436e-05,
        "meta_mean_motion_dot": 1.67e-06,
        "meta_mean_motion_ddot": 0,
        "tle_line1": "1 33396U 08049A   25341.25638723  .00000167  00000+0  98264-4 0  9992",
        "tle_line2": "2 33396  98.5876  39.5076 0001110 100.4502 259.6800 14.20094771890725"
      },
      "geometry": {
        "type": "Point",
        "coordinates": [
          -143.67295505590533,
          -23.494005747014533
        ]
      }
    }
  ]
}